{"fetched_at":"2026-06-08T21:49:16Z","count":300,"tles":[{"name":"BRO-20","line1":"1 66674U 25276J   26159.13153597  .00003118  00000+0  15610-3 0  9996","line2":"2 66674  97.4167 232.4110 0007375  47.5074 312.6782 15.18104612 29028","category":"Other"},{"name":"SITRO-AIS 8 (ANOKHIN)","line1":"1 57193U 23091AD  26159.13897133  .00011763  00000+0  38369-3 0  9997","line2":"2 57193  97.5058 224.5056 0011827 127.6007 232.6310 15.31886167163066","category":"Other"},{"name":"XINGYUN-2 01","line1":"1 45602U 20028A   26159.20654125  .00002262  00000+0  13632-3 0  9996","line2":"2 45602  97.4867 151.7857 0007542 228.9199 131.1380 15.11768432333488","category":"Other"},{"name":"HAIYANG-1D","line1":"1 45721U 20036A   26159.18248926  .00000099  00000+0  50794-4 0  9999","line2":"2 45721  98.4555 101.0583 0002873 149.0533 211.0821 14.34170378313684","category":"Other"},{"name":"FENGYUN 2H","line1":"1 43491U 18050A   26159.07428795 -.00000115  00000+0  00000+0 0  9996","line2":"2 43491   3.0070  79.1794 0001516 126.1581 157.3291  1.00271427 29347","category":"Weather"},{"name":"CENTISPACE-1 S13","line1":"1 62582U 25007H   26159.10597244 -.00000052  00000+0  84023-4 0  9990","line2":"2 62582  54.9818 323.2507 0013008  71.4754 288.7615 13.80609685 73476","category":"Other"},{"name":"HONGYAN 1 (CHONGQING)","line1":"1 43914U 18112F   26158.57069281 -.00000089  00000+0  69568-4 0  9999","line2":"2 43914  50.0091 272.3837 0006767 226.4397 133.5921 13.43820270365243","category":"Other"},{"name":"GONETS-M 17","line1":"1 46486U 20068A   26159.19366507  .00000025  00000+0  11094-3 0  9998","line2":"2 46486  82.4993 353.0986 0023370  56.1912 304.1388 12.42872757258049","category":"Other"},{"name":"ZHEDA PIXING 1B","line1":"1 37166U 10047B   26159.17446244  .00002650  00000+0  27194-3 0  9998","line2":"2 37166  97.9487 137.2924 0018246 314.6993  45.2738 14.91189057849075","category":"Other"},{"name":"AIST-2T 2","line1":"1 67254U 25313G   26159.11028065  .00015962  00000+0  19285-3 0  9994","line2":"2 67254  97.0835 236.6482 0007438 226.3063 133.7579 15.60772604 25193","category":"Other"},{"name":"FIREFLY-3","line1":"1 62710U 25009DF  26159.13474294  .00001354  00000+0  13664-3 0  9994","line2":"2 62710  97.7059 237.4871 0003586 161.0948 199.0405 14.92712085 75984","category":"Other"},{"name":"GLOBAL-9","line1":"1 47971U 21023G   26158.11176179  .00024138  00000+0  48586-3 0  9992","line2":"2 47971  44.9822 307.1421 0005324 267.1499  92.8782 15.46210962293386","category":"Other"},{"name":"GAOFEN-4","line1":"1 41194U 15083A   26157.79613806 -.00000321  00000+0  00000+0 0  9992","line2":"2 41194   0.3301  83.7532 0004358 108.8481  94.9007  1.00269078 38425","category":"Other"},{"name":"LEMUR-2-AMANDA-SVANTE","line1":"1 48269U 21034B   26159.16013595  .00026862  00000+0  82342-3 0  9997","line2":"2 48269  97.5755 237.2119 0001253 245.9412 114.1699 15.33756552279676","category":"Other"},{"name":"STARLINK-4362","line1":"1 53043U 22077A   26159.09437416  .00000032  00000+0  61962-5 0  9993","line2":"2 53043  97.3869 338.4469 0001889  81.6987 278.4454 15.05651919214510","category":"Starlink"},{"name":"2024-092E","line1":"1 59777U 24092E   26159.12203670  .00022343  00000+0  62698-3 0  9993","line2":"2 59777  97.6564 291.7848 0007584 175.8045 184.3264 15.36553105114353","category":"Other"},{"name":"ZORKIY-2M 1","line1":"1 57177U 23091M   26159.13220058  .00007666  00000+0  35003-3 0  9994","line2":"2 57177  97.5092 218.1269 0014390 143.6130 216.6087 15.20785730162620","category":"Other"},{"name":"CENTISPACE-1 S5","line1":"1 54020U 22126A   26159.13332039  .00000836  00000+0  19842-3 0  9994","line2":"2 54020  54.9988 249.1910 0014283  55.6841 304.5503 14.63000861195711","category":"Other"},{"name":"WILDFIRE 3","line1":"1 57758U 23133C   26159.00346760  .00000093  00000+0  71269-4 0  9993","line2":"2 57758  80.9973  14.8130 0009081  24.6632 335.4957 13.86277887139824","category":"Other"},{"name":"IRNSS-1A","line1":"1 39199U 13034A   26142.85947303  .00000059  00000+0  00000+0 0  9998","line2":"2 39199  35.6649  64.2334 0016618 185.3754 355.4646  1.00280263 47111","category":"Other"},{"name":"AL MUNTHER","line1":"1 63240U 25052AG  26158.96352416  .00017528  00000+0  57681-3 0  9999","line2":"2 63240  97.3893  53.7993 0006907 163.4169 196.7300 15.31548360 68606","category":"Other"},{"name":"BRITE-PL1 (LEM)","line1":"1 39431U 13066R   26105.04022470  .00000495  00000+0  10841-3 0  9993","line2":"2 39431  97.7877 221.9335 0189860 207.2534 151.8601 14.51272561654772","category":"Other"},{"name":"LUSAT (LO-19)","line1":"1 20442U 90005G   26159.04225351  .00000130  00000+0  63300-4 0  9990","line2":"2 20442  98.8852 180.5956 0010667 229.5627 130.4626 14.34120497901086","category":"Other"},{"name":"S-NET B","line1":"1 43187U 18014H   26158.97240561  .00005447  00000+0  28230-3 0  9990","line2":"2 43187  97.5372  63.8067 0010253  53.5740 306.6437 15.16556524457367","category":"Other"},{"name":"CSC-1","line1":"1 58022U 23155G   26159.10651588  .00003006  00000+0  18546-3 0  9995","line2":"2 58022  97.5365 228.7207 0006390 270.9606  89.0891 15.10673369146366","category":"Other"},{"name":"HORACIO","line1":"1 59098U 24043A   26159.20581156  .00001845  00000+0  15920-3 0  9992","line2":"2 59098  97.8510 290.9266 0011942  53.1401 307.0914 14.98492934123326","category":"Other"},{"name":"ION SCV-014","line1":"1 62630U 25009X   26159.13689485  .00001983  00000+0  14313-3 0  9995","line2":"2 62630  97.4863 232.5735 0005437 154.1118 206.0382 15.05206705 76626","category":"Other"},{"name":"CBERS 4","line1":"1 40336U 14079A   26159.18505821  .00000193  00000+0  81836-4 0  9992","line2":"2 40336  98.3530 216.2988 0002042  71.9227 288.2182 14.35507116602662","category":"Other"},{"name":"SATORO-T3","line1":"1 64589U 25135BP  26159.12287953  .00002194  00000+0  20951-3 0  9993","line2":"2 64589  97.7701 273.7423 0005002  21.4274 338.7155 14.94307140 52552","category":"Other"},{"name":"NINGXIA-1 2","line1":"1 44780U 19076B   26159.18690759 -.00000010  00000+0  78326-4 0  9995","line2":"2 44780  45.0072 220.4071 0005875 111.0703 249.0759 14.02055330336592","category":"Other"},{"name":"SITRO-AIS 24","line1":"1 61741U 24199G   26159.12643325  .00002352  00000+0  21339-3 0  9995","line2":"2 61741  97.3262 357.7734 0014004  93.3435 266.9390 14.96115079130532","category":"Other"},{"name":"BLACKJACK ACES-2","line1":"1 56955U 23084Z   26159.08263117  .00007039  00000+0  34455-3 0  9990","line2":"2 56955  97.6196 294.2902 0001635  71.2130 288.9281 15.18500289165792","category":"Other"},{"name":"2023-117C","line1":"1 57582U 23117C   26159.19764457  .00027209  00000+0  67650-3 0  9993","line2":"2 57582  97.4064 240.1020 0005396 260.4662  99.5975 15.40256632157187","category":"Other"},{"name":"2025-155H","line1":"1 64883U 25155H   26159.13317712  .00009747  00000+0  34492-3 0  9996","line2":"2 64883  97.4569 127.6076 0006532 189.2286 170.8835 15.29337007 79377","category":"Other"},{"name":"PTD-4 (LISA-T)","line1":"1 60565U 24149DB  26159.00002667  .00024714  00000+0  10931-2 0  9999","line2":"2 60565  97.6962 247.6743 0003557  88.5091 271.6552 15.21674653 99429","category":"Other"},{"name":"LARES-2","line1":"1 53105U 22080A   26158.30850878 -.00000008  00000+0  00000+0 0  9994","line2":"2 53105  70.1642 308.7172 0005412 333.4127  26.6130  6.38965096 91032","category":"Other"},{"name":"2024-016B","line1":"1 58821U 24016B   26159.08267868  .00117688  00000+0  91572-3 0  9992","line2":"2 58821  97.4459 255.4565 0002714 124.7416 235.4102 15.71381069132740","category":"Other"},{"name":"DUCHIFAT-1","line1":"1 40021U 14033M   26159.12664081  .00107166  00000+0  11780-2 0  9998","line2":"2 40021  98.0465 217.0282 0004621 132.1747 227.9902 15.62815586654330","category":"Other"},{"name":"XCUBE-1","line1":"1 62400U 24247Z   26158.78976786  .00009684  00000+0  34257-3 0  9991","line2":"2 62400  44.9972 343.8989 0003756 181.3173 178.7702 15.29460744 81528","category":"Other"},{"name":"GRBBETA","line1":"1 60237U 24128C   26158.79556698  .00004941  00000+0  33997-3 0  9993","line2":"2 60237  61.9897 249.2153 0041910 132.7105 227.7529 15.06577038104854","category":"Other"},{"name":"SIRION PATHFINDER-2","line1":"1 43759U 18099B   26159.06410818  .00005499  00000+0  30221-3 0  9993","line2":"2 43759  97.4257 208.3390 0007877 341.7112  18.3836 15.14472143411240","category":"Other"},{"name":"SHIELDS 1","line1":"1 43850U 18104B   26043.50416380  .06921989 -15212-5  25172-3 0  9997","line2":"2 43850  84.9817 217.5932 0008062 271.6012  88.4371 16.43688533400522","category":"Other"},{"name":"TECHSAT 1B (GO-32)","line1":"1 25397U 98043D   26159.21376741  .00000063  00000+0  47383-4 0  9991","line2":"2 25397  99.0065 151.7461 0000556 186.8121 173.3049 14.24426649450058","category":"Other"},{"name":"LPNTSAT-002 (IOD-2)","line1":"1 68409U 26065B   26158.90432725  .00007353  00000+0  35227-3 0  9999","line2":"2 68409  97.4017  39.6288 0015033  38.3042 321.9257 15.19122360 10836","category":"Other"},{"name":"ION SCV-015","line1":"1 58469U 23185H   26159.19134223  .00006576  00000+0  20913-3 0  9990","line2":"2 58469  97.5757 247.7012 0010456 126.7432 233.4771 15.32911127139707","category":"Other"},{"name":"TIANQIN 1 (CAS-6)","line1":"1 44879U 19093A   26159.18989396  .00003949  00000+0  36222-3 0  9992","line2":"2 44879  97.7804 243.0955 0012946  84.5851 275.6846 14.95398611350700","category":"Other"},{"name":"JILIN-1 KUANFU 01","line1":"1 45016U 20003A   26159.14493640  .00003377  00000+0  20769-3 0  9991","line2":"2 45016  97.5028 233.2771 0009016 342.6268  17.4652 15.10675829353966","category":"Other"},{"name":"TOMORROW-S2","line1":"1 60485U 24149T   26159.15726924  .00007003  00000+0  22481-3 0  9991","line2":"2 60485  97.3812 240.1393 0001508 330.5933  29.5224 15.32617804100706","category":"Other"},{"name":"ICEYE-X40","line1":"1 60549U 24149CK  26158.95047850  .00001522  00000+0  13411-3 0  9996","line2":"2 60549  97.6802 235.5948 0006220 108.2418 251.9481 14.97904825 98699","category":"Other"}]}